NORAD_CAT_ID,OBJECT_NAME,OBJECT_TYPE,EPOCH,MEAN_MOTION,ECCENTRICITY,INCLINATION,RA_OF_ASC_NODE,ARG_OF_PERICENTER,MEAN_ANOMALY,BSTAR,MEAN_MOTION_DOT,MEAN_MOTION_DDOT,TLE_LINE0,TLE_LINE1,TLE_LINE2,SEMIMAJOR_AXIS,PERIOD,APOGEE,PERIGEE,DECAYED
53531.0,STARLINK-4487,PAYLOAD,2024-04-27 03:47:45,15.08841789,0.0001213,53.2163,253.6354,95.8108,264.3022,-0.00056712,-9.303e-05,0.0,0 STARLINK-4487,1 53531U 22101E   24118.15816630 -.00009303  00000-0 -56712-3 0  9990,2 53531  53.2163 253.6354 0001213  95.8108 264.3022 15.08841789 93276,6917.875,95.437,540.579,538.901,0.0
53531.0,STARLINK-4487,PAYLOAD,2024-04-27 13:20:04,15.0885714,0.0001245,53.2162,251.8512,102.3761,257.7371,0.0010793,0.00016939,0.0,0 STARLINK-4487,1 53531U 22101E   24118.55560346  .00016939  00000-0  10793-2 0  9993,2 53531  53.2162 251.8512 0001245 102.3761 257.7371 15.08857140 93333,6917.828,95.436,540.554,538.832,0.0
53531.0,STARLINK-4487,PAYLOAD,2024-04-27 21:16:59,15.08885606,0.0001279,53.216,250.3645,103.1735,256.94,0.0027194,0.00043312,0.0,0 STARLINK-4487,1 53531U 22101E   24118.88679731  .00043312  00000-0  27194-2 0  9996,2 53531  53.2160 250.3645 0001279 103.1735 256.9400 15.08885606 93386,6917.741,95.435,540.491,538.721,0.0
53531.0,STARLINK-4487,PAYLOAD,2024-04-28 02:03:09,15.08825951,6.2e-05,53.2161,249.4728,90.3397,269.7667,-0.00072077,-0.00011736,0.0,0 STARLINK-4487,1 53531U 22101E   24119.08552448 -.00011736  00000-0 -72077-3 0  9992,2 53531  53.2161 249.4728 0000620  90.3397 269.7667 15.08825951 93416,6917.923,95.438,540.217,539.359,0.0
53531.0,STARLINK-4487,PAYLOAD,2024-04-28 14:46:15,15.08816327,0.0001098,53.2158,247.0937,78.8133,281.2982,0.0011586,0.00018187,0.0,0 STARLINK-4487,1 53531U 22101E   24119.61545941  .00018187  00000-0  11586-2 0  9993,2 53531  53.2158 247.0937 0001098  78.8133 281.2982 15.08816327 93491,6917.953,95.439,540.577,539.058,0.0
53531.0,STARLINK-4487,PAYLOAD,2024-04-29 01:53:58,15.08833499,0.0001273,53.2158,245.0124,71.4474,288.6656,0.0015386,0.00024279,0.0,0 STARLINK-4487,1 53531U 22101E   24120.07914566  .00024279  00000-0  15386-2 0  9999,2 53531  53.2158 245.0124 0001273  71.4474 288.6656 15.08833499 93565,6917.9,95.438,540.646,538.885,0.0
53531.0,STARLINK-4487,PAYLOAD,2024-04-29 14:37:03,15.08849932,0.0001332,53.2158,242.6334,69.8962,290.2174,0.0013456,0.00021198,0.0,0 STARLINK-4487,1 53531U 22101E   24120.60906590  .00021198  00000-0  13456-2 0  9999,2 53531  53.2158 242.6334 0001332  69.8962 290.2174 15.08849932 93642,6917.85,95.437,540.636,538.794,0.0
53531.0,STARLINK-4487,PAYLOAD,2024-04-30 12:52:26,15.08858663,0.0001309,53.2154,238.4702,102.3938,257.7201,0.00069238,0.00010754,0.0,0 STARLINK-4487,1 53531U 22101E   24121.53642013  .00010754  00000-0  69238-3 0  9995,2 53531  53.2154 238.4702 0001309 102.3938 257.7201 15.08858663 93785,6917.823,95.436,540.594,538.783,0.0
53531.0,STARLINK-4487,PAYLOAD,2024-04-30 14:27:49,15.08854799,0.0001275,53.2157,238.1728,77.5982,282.5153,0.00052329,8.053e-05,0.0,0 STARLINK-4487,1 53531U 22101E   24121.60266085  .00008053  00000-0  52329-3 0  9996,2 53531  53.2157 238.1728 0001275  77.5982 282.5153 15.08854799 93796,6917.835,95.437,540.582,538.818,0.0
53531.0,STARLINK-4487,PAYLOAD,2024-05-01 14:18:36,15.08847477,0.0001299,53.2162,233.7114,78.7803,281.3335,0.00017622,2.518e-05,0.0,0 STARLINK-4487,1 53531U 22101E   24122.59625750  .00002518  00000-0  17622-3 0  9990,2 53531  53.2162 233.7114 0001299  78.7803 281.3335 15.08847477 93944,6917.858,95.437,540.621,538.824,0.0
53531.0,STARLINK-4487,PAYLOAD,2024-05-01 17:29:22,15.08848639,0.0001279,53.2164,233.1163,78.8763,281.2372,0.0001324,1.82e-05,0.0,0 STARLINK-4487,1 53531U 22101E   24122.72873664  .00001820  00000-0  13240-3 0  9991,2 53531  53.2164 233.1163 0001279  78.8763 281.2372 15.08848639 93961,6917.854,95.437,540.604,538.834,0.0
53531.0,STARLINK-4487,PAYLOAD,2024-05-02 12:34:01,15.08834363,0.0001439,53.2172,229.5515,94.1103,266.0054,-0.00013357,-2.413e-05,0.0,0 STARLINK-4487,1 53531U 22101E   24123.52362291 -.00002413  00000-0 -13357-3 0  9999,2 53531  53.2172 229.5515 0001439  94.1103 266.0054 15.08834363 94088,6917.898,95.438,540.758,538.767,0.0
53531.0,STARLINK-4487,PAYLOAD,2024-05-02 14:09:24,15.0883537,0.0001295,53.2166,229.2553,93.1322,266.9818,-0.0001161,-2.135e-05,0.0,0 STARLINK-4487,1 53531U 22101E   24123.58986241 -.00002135  00000-0 -11610-3 0  9993,2 53531  53.2166 229.2553 0001295  93.1322 266.9818 15.08835370 94099,6917.895,95.438,540.655,538.864,0.0
53531.0,STARLINK-4487,PAYLOAD,2024-05-02 23:41:42,15.08844983,0.0001479,53.217,227.4706,98.1546,261.9614,4.4042e-05,4.13e-06,0.0,0 STARLINK-4487,1 53531U 22101E   24123.98729850  .00000413  00000-0  44042-4 0  9999,2 53531  53.2170 227.4706 0001479  98.1546 261.9614 15.08844983 94157,6917.865,95.437,540.753,538.707,0.0
53531.0,STARLINK-4487,PAYLOAD,2024-05-03 12:24:49,15.08813934,0.0001884,53.2162,225.0914,83.8878,276.2329,0.0026639,0.00042333,0.0,0 STARLINK-4487,1 53531U 22101E   24124.51723801  .00042333  00000-0  26639-2 0  9996,2 53531  53.2162 225.0914 0001884  83.8878 276.2329 15.08813934 94235,6917.96,95.439,541.128,538.522,0.0
53531.0,STARLINK-4487,PAYLOAD,2024-05-03 14:00:09,15.08870294,0.0001418,53.2171,224.7946,105.1053,255.0096,0.00049886,7.667e-05,0.0,0 STARLINK-4487,1 53531U 22101E   24124.58344654  .00007667  00000-0  49886-3 0  9999,2 53531  53.2171 224.7946 0001418 105.1053 255.0096 15.08870294 94241,6917.788,95.436,540.634,538.672,0.0
53531.0,STARLINK-4487,PAYLOAD,2024-05-03 23:32:28,15.08860479,0.0001068,53.2152,223.0084,73.2477,286.8633,0.00035948,5.441e-05,0.0,0 STARLINK-4487,1 53531U 22101E   24124.98088673  .00005441  00000-0  35948-3 0  9991,2 53531  53.2152 223.0084 0001068  73.2477 286.8633 15.08860479 94301,6917.818,95.436,540.422,538.944,0.0
53531.0,STARLINK-4487,PAYLOAD,2024-05-04 12:15:34,15.08818231,0.0001266,53.216,220.6302,76.5422,283.5711,-0.00056047,-9.191e-05,0.0,0 STARLINK-4487,1 53531U 22101E   24125.51081822 -.00009191  00000-0 -56047-3 0  9991,2 53531  53.2160 220.6302 0001266  76.5422 283.5711 15.08818231 94380,6917.947,95.439,540.688,538.936,0.0
53531.0,STARLINK-4487,PAYLOAD,2024-05-05 12:06:23,15.08831906,0.0001382,53.2166,216.1682,67.6569,292.4569,0.0011013,0.00017279,0.0,0 STARLINK-4487,1 53531U 22101E   24126.50443539  .00017279  00000-0  11013-2 0  9995,2 53531  53.2166 216.1682 0001382  67.6569 292.4569 15.08831906 94530,6917.905,95.438,540.726,538.814,0.0
53531.0,STARLINK-4487,PAYLOAD,2024-05-05 13:41:46,15.08834119,0.0001316,53.2164,215.8704,68.6456,291.4676,0.0010086,0.00015798,0.0,0 STARLINK-4487,1 53531U 22101E   24126.57067548  .00015798  00000-0  10086-2 0  9997,2 53531  53.2164 215.8704 0001316  68.6456 291.4676 15.08834119 94540,6917.898,95.438,540.674,538.853,0.0
53531.0,STARLINK-4487,PAYLOAD,2024-05-05 15:17:09,15.08835367,0.0001319,53.2164,215.5732,68.2137,291.8995,0.0009877,0.00015464,0.0,0 STARLINK-4487,1 53531U 22101E   24126.63691593  .00015464  00000-0  98770-3 0  9994,2 53531  53.2164 215.5732 0001319  68.2137 291.8995 15.08835367 94558,6917.895,95.438,540.672,538.847,0.0
53531.0,STARLINK-4487,PAYLOAD,2024-05-06 11:57:09,15.08875167,0.0001398,53.2163,211.7077,65.228,294.8857,0.0014952,0.00023611,0.0,0 STARLINK-4487,1 53531U 22101E   24127.49802697  .00023611  00000-0  14952-2 0  9990,2 53531  53.2163 211.7077 0001398  65.2280 294.8857 15.08875167 94686,6917.773,95.435,540.605,538.671,0.0
53531.0,STARLINK-4487,PAYLOAD,2024-05-06 23:04:50,15.08870414,0.0001518,53.2154,209.6258,74.5263,285.5897,0.00079646,0.00012421,0.0,0 STARLINK-4487,1 53531U 22101E   24127.96170076  .00012421  00000-0  79646-3 0  9990,2 53531  53.2154 209.6258 0001518  74.5263 285.5897 15.08870414 94750,6917.787,95.436,540.703,538.602,0.0
53531.0,STARLINK-4487,PAYLOAD,2024-05-07 11:47:55,15.0885609,0.000124,53.2168,207.2479,71.7349,288.3778,0.0017691,0.00027992,0.0,0 STARLINK-4487,1 53531U 22101E   24128.49161918  .00027992  00000-0  17691-2 0  9994,2 53531  53.2168 207.2479 0001240  71.7349 288.3778 15.08856090 94832,6917.831,95.437,540.554,538.838,0.0
53531.0,STARLINK-4487,PAYLOAD,2024-05-08 11:38:43,15.08842368,0.0001394,53.2166,202.7868,78.154,281.9608,0.00030891,4.632e-05,0.0,0 STARLINK-4487,1 53531U 22101E   24129.48522160  .00004632  00000-0  30891-3 0  9998,2 53531  53.2166 202.7868 0001394  78.1540 281.9608 15.08842368 94986,6917.873,95.437,540.703,538.774,0.0
53531.0,STARLINK-4487,PAYLOAD,2024-05-09 11:29:30,15.08849486,0.0001339,53.2158,198.3265,76.8393,283.2748,0.00026775,3.977e-05,0.0,0 STARLINK-4487,1 53531U 22101E   24130.47881948  .00003977  00000-0  26775-3 0  9998,2 53531  53.2158 198.3265 0001339  76.8393 283.2748 15.08849486 95134,6917.851,95.437,540.643,538.79,0.0
53531.0,STARLINK-4487,PAYLOAD,2024-05-10 11:20:17,15.08838298,0.0001352,53.2161,193.8683,82.5508,277.5638,0.00010293,1.351e-05,0.0,0 STARLINK-4487,1 53531U 22101E   24131.47242720  .00001351  00000-0  10293-3 0  9990,2 53531  53.2161 193.8683 0001352  82.5508 277.5638 15.08838298 95288,6917.886,95.438,540.686,538.815,0.0
53531.0,STARLINK-4487,PAYLOAD,2024-05-10 14:31:03,15.08840591,0.000134,53.2159,193.272,77.8614,282.2528,0.00015603,2.196e-05,0.0,0 STARLINK-4487,1 53531U 22101E   24131.60490671  .00002196  00000-0  15603-3 0  9993,2 53531  53.2159 193.2720 0001340  77.8614 282.2528 15.08840591 95306,6917.879,95.438,540.671,538.817,0.0
53531.0,STARLINK-4487,PAYLOAD,2024-05-11 12:46:25,15.08929936,0.0001511,53.215,189.1101,125.5101,234.6033,0.0025962,0.00041376,0.0,0 STARLINK-4487,1 53531U 22101E   24132.53223683  .00041376  00000-0  25962-2 0  9994,2 53531  53.2150 189.1101 0001511 125.5101 234.6033 15.08929936 95444,6917.606,95.432,540.516,538.425,0.0
53531.0,STARLINK-4487,PAYLOAD,2024-05-11 20:43:21,15.08875203,0.0002162,53.2146,187.6236,70.6591,289.4634,8.1231e-05,1.006e-05,0.0,0 STARLINK-4487,1 53531U 22101E   24132.86344180  .00001006  00000-0  81231-4 0  9995,2 53531  53.2146 187.6236 0002162  70.6591 289.4634 15.08875203 95494,6917.773,95.435,541.133,538.142,0.0
